{
    "week": 287,
    "satellites": [
        {
            "Name": "COSMOS 2545 (760)",
            "Line1": "1 45358U 20018A   24280.27076338 -.00000049  00000+0  00000+0 0  9990",
            "Line2": "2 45358  64.6954 334.0902 0011814 241.7681 118.1867  2.13102617 35470",
            "SatelliteNumber": "45358",
            "Classification": "U",
            "LaunchYear": "20",
            "LaunchNumber": "018",
            "PieceOfLaunch": "A",
            "EpochYear": "24",
            "EpochDay": 280.27076338,
            "FirstDerivativeMeanMotion": -4.9e-07,
            "SecondDerivativeMeanMotion": "00000+0",
            "BSTAR": "00000+0",
            "SetNumber": "999",
            "Inclination": 64.6954,
            "RAAN": 334.0902,
            "Eccentricity": 0.0011814,
            "ArgumentOfPerigee": 241.7681,
            "MeanAnomaly": 118.1867,
            "MeanMotion": 2.13102617,
            "RevolutionNumber": "3547"
        },
        {
            "Name": "COSMOS 2547 (705K)",
            "Line1": "1 46805U 20075A   24279.04956933  .00000024  00000+0  00000+0 0  9994",
            "Line2": "2 46805  64.5990 213.1924 0007775 240.0748 119.8515  2.13102843 30693",
            "SatelliteNumber": "46805",
            "Classification": "U",
            "LaunchYear": "20",
            "LaunchNumber": "075",
            "PieceOfLaunch": "A",
            "EpochYear": "24",
            "EpochDay": 279.04956933,
            "FirstDerivativeMeanMotion": 2.4e-07,
            "SecondDerivativeMeanMotion": "00000+0",
            "BSTAR": "00000+0",
            "SetNumber": "999",
            "Inclination": 64.599,
            "RAAN": 213.1924,
            "Eccentricity": 0.0007775,
            "ArgumentOfPerigee": 240.0748,
            "MeanAnomaly": 119.8515,
            "MeanMotion": 2.13102843,
            "RevolutionNumber": "3069"
        },
        {
            "Name": "COSMOS 2557 (706K)",
            "Line1": "1 52984U 22075A   24279.68464496 -.00000053  00000+0  00000+0 0  9992",
            "Line2": "2 52984  64.6253 336.2305 0013251 273.6818  86.2412  2.13102276 17516",
            "SatelliteNumber": "52984",
            "Classification": "U",
            "LaunchYear": "22",
            "LaunchNumber": "075",
            "PieceOfLaunch": "A",
            "EpochYear": "24",
            "EpochDay": 279.68464496,
            "FirstDerivativeMeanMotion": -5.3e-07,
            "SecondDerivativeMeanMotion": "00000+0",
            "BSTAR": "00000+0",
            "SetNumber": "999",
            "Inclination": 64.6253,
            "RAAN": 336.2305,
            "Eccentricity": 0.0013251,
            "ArgumentOfPerigee": 273.6818,
            "MeanAnomaly": 86.2412,
            "MeanMotion": 2.13102276,
            "RevolutionNumber": "1751"
        },
        {
            "Name": "COSMOS 2559 (707K)",
            "Line1": "1 54031U 22130A   24279.62789625 -.00000053  00000+0  00000+0 0  9997",
            "Line2": "2 54031  64.5975 336.3463 0008229 224.7228 135.2851  2.13101581 15482",
            "SatelliteNumber": "54031",
            "Classification": "U",
            "LaunchYear": "22",
            "LaunchNumber": "130",
            "PieceOfLaunch": "A",
            "EpochYear": "24",
            "EpochDay": 279.62789625,
            "FirstDerivativeMeanMotion": -5.3e-07,
            "SecondDerivativeMeanMotion": "00000+0",
            "BSTAR": "00000+0",
            "SetNumber": "999",
            "Inclination": 64.5975,
            "RAAN": 336.3463,
            "Eccentricity": 0.0008229,
            "ArgumentOfPerigee": 224.7228,
            "MeanAnomaly": 135.2851,
            "MeanMotion": 2.13101581,
            "RevolutionNumber": "1548"
        },
        {
            "Name": "COSMOS 2564 (761)",
            "Line1": "1 54377U 22161A   24279.34897111  .00000027  00000+0  00000+0 0  9993",
            "Line2": "2 54377  64.7405 213.3070 0010017 220.8871 139.0429  2.13102203 14420",
            "SatelliteNumber": "54377",
            "Classification": "U",
            "LaunchYear": "22",
            "LaunchNumber": "161",
            "PieceOfLaunch": "A",
            "EpochYear": "24",
            "EpochDay": 279.34897111,
            "FirstDerivativeMeanMotion": 2.7e-07,
            "SecondDerivativeMeanMotion": "00000+0",
            "BSTAR": "00000+0",
            "SetNumber": "999",
            "Inclination": 64.7405,
            "RAAN": 213.307,
            "Eccentricity": 0.0010017,
            "ArgumentOfPerigee": 220.8871,
            "MeanAnomaly": 139.0429,
            "MeanMotion": 2.13102203,
            "RevolutionNumber": "1442"
        },
        {
            "Name": "COSMOS 2569 (703K)",
            "Line1": "1 57517U 23114A   24279.83479747  .00000044  00000+0  00000+0 0  9995",
            "Line2": "2 57517  64.9682  93.5633 0008590 293.2293  66.7123  2.13104032  9069",
            "SatelliteNumber": "57517",
            "Classification": "U",
            "LaunchYear": "23",
            "LaunchNumber": "114",
            "PieceOfLaunch": "A",
            "EpochYear": "24",
            "EpochDay": 279.83479747,
            "FirstDerivativeMeanMotion": 4.4e-07,
            "SecondDerivativeMeanMotion": "00000+0",
            "BSTAR": "00000+0",
            "SetNumber": "999",
            "Inclination": 64.9682,
            "RAAN": 93.5633,
            "Eccentricity": 0.000859,
            "ArgumentOfPerigee": 293.2293,
            "MeanAnomaly": 66.7123,
            "MeanMotion": 2.13104032,
            "RevolutionNumber": "906"
        }
    ]
}